[{"OBJECT_NAME":"IRIDIUM 163","OBJECT_ID":"2018-061G","EPOCH":"2026-03-09T13:59:42.401760","MEAN_MOTION":14.34217733,"ECCENTRICITY":0.0002172,"INCLINATION":86.3916,"RA_OF_ASC_NODE":98.3882,"ARG_OF_PERICENTER":91.0803,"MEAN_ANOMALY":269.0641,"EPHEMERIS_TYPE":0,"CLASSIFICATION_TYPE":"U","NORAD_CAT_ID":43575,"ELEMENT_SET_NO":999,"REV_AT_EPOCH":39910,"BSTAR":2.0406e-5,"MEAN_MOTION_DOT":7.7e-7,"MEAN_MOTION_DDOT":0},{"OBJECT_NAME":"COSMOS 2251 DEB","OBJECT_ID":"1993-036EX","EPOCH":"2026-03-09T13:23:13.074144","MEAN_MOTION":14.38125813,"ECCENTRICITY":0.0020508,"INCLINATION":74.0348,"RA_OF_ASC_NODE":114.9251,"ARG_OF_PERICENTER":185.7251,"MEAN_ANOMALY":293.5553,"EPHEMERIS_TYPE":0,"CLASSIFICATION_TYPE":"U","NORAD_CAT_ID":33942,"ELEMENT_SET_NO":999,"REV_AT_EPOCH":89382,"BSTAR":0.00020998624,"MEAN_MOTION_DOT":6.12e-6,"MEAN_MOTION_DDOT":0}]
